PROGRESS-MS 32          
1 65586U 25204A   25337.89837127  .00013627  00000+0  25253-3 0  9996
2 65586  51.6303 186.2514 0003592 201.3576 158.7263 15.49284650   275
CYGNUS NG-23            
1 65616U 25208A   25337.89837127  .00013627  00000+0  25253-3 0  9994
2 65616  51.6303 186.2514 0003592 201.3576 158.7263 15.49284650   224
DRAGONFLY               
1 65729U 98067XH  25337.82793534  .00174585  00000+0  14909-2 0  9994
2 65729  51.6246 181.2773 0006536 221.3225 138.7278 15.68394911 11769
1998-067XJ              
1 65730U 98067XJ  25336.82362581  .06330363  11931-4  22859-2 0  9996
2 65730  51.6061 180.4655 0010114 256.3912 103.5981 16.23931094 11687
1998-067XK              
1 65731U 98067XK  25337.85642202  .00126041  00000+0  13143-2 0  9998
2 65731  51.6280 182.2290 0005904 193.4783 166.6055 15.63596152 11759
RSP-03                  
1 65732U 98067XL  25337.81203793  .00135578  00000+0  12909-2 0  9997
2 65732  51.6261 181.9259 0006687 196.3432 163.7349 15.65846049 11762
GHS-01                  
1 65733U 98067XM  25337.92076774  .00238165  00000+0  18487-2 0  9990
2 65733  51.6271 180.4028 0007009 220.9221 139.1251 15.70494881 11792
YOTSUBA-KULOVER         
1 65941U 98067XN  25337.54415300  .00081930  00000+0  10742-2 0  9993
2 65941  51.6280 186.1413 0002089 172.2888 187.8136 15.57842234  8427
BOTAN                   
1 65942U 98067XP  25337.75958221  .00114481  00000+0  13485-2 0  9996
2 65942  51.6281 184.5795 0004243 175.2259 184.8775 15.60510623  8461
E-KAGAKU-1              
1 65943U 98067XQ  25336.90248775  .00073283  00000+0  96702-3 0  9997
2 65943  51.6296 189.3580 0003520 147.4331 212.6879 15.57714998  8329
HRC MONOBLOCK CAMERA    
1 66052U 98067XR  25337.83931104  .00049466  00000+0  77353-3 0  9994
2 66052  51.6292 185.8570 0004360 148.6875 211.4376 15.53262535  7459
HTV-X1                  
1 66174U 25241A   25337.89837127  .00013627  00000+0  25253-3 0  9991
2 66174  51.6303 186.2514 0003592 201.3576 158.7263 15.49284650   516
