CCSDS_OMM_VERS = 2.0
CREATION_DATE  = 
ORIGINATOR     = 

OBJECT_NAME    = PROGRESS-MS 32
OBJECT_ID      = 2025-204A
CENTER_NAME    = EARTH
REF_FRAME      = TEME
TIME_SYSTEM    = UTC
MEAN_ELEMENT_THEORY = SGP/SGP4

EPOCH          = 2025-12-03T21:33:39.277728
MEAN_MOTION    = 15.49284650
ECCENTRICITY   = .00035922
INCLINATION    = 51.6303
RA_OF_ASC_NODE = 186.2514
ARG_OF_PERICENTER = 201.3576
MEAN_ANOMALY   = 158.7263

EPHEMERIS_TYPE = 0
CLASSIFICATION_TYPE = U
NORAD_CAT_ID   = 65586
ELEMENT_SET_NO = 999
REV_AT_EPOCH   = 27
BSTAR          = .25253496E-3
MEAN_MOTION_DOT = .13627E-3
MEAN_MOTION_DDOT = 0

CCSDS_OMM_VERS = 2.0
CREATION_DATE  = 
ORIGINATOR     = 

OBJECT_NAME    = CYGNUS NG-23
OBJECT_ID      = 2025-208A
CENTER_NAME    = EARTH
REF_FRAME      = TEME
TIME_SYSTEM    = UTC
MEAN_ELEMENT_THEORY = SGP/SGP4

EPOCH          = 2025-12-03T21:33:39.277728
MEAN_MOTION    = 15.49284650
ECCENTRICITY   = .00035922
INCLINATION    = 51.6303
RA_OF_ASC_NODE = 186.2514
ARG_OF_PERICENTER = 201.3576
MEAN_ANOMALY   = 158.7263

EPHEMERIS_TYPE = 0
CLASSIFICATION_TYPE = U
NORAD_CAT_ID   = 65616
ELEMENT_SET_NO = 999
REV_AT_EPOCH   = 22
BSTAR          = .25253496E-3
MEAN_MOTION_DOT = .13627E-3
MEAN_MOTION_DDOT = 0

CCSDS_OMM_VERS = 2.0
CREATION_DATE  = 
ORIGINATOR     = 

OBJECT_NAME    = DRAGONFLY
OBJECT_ID      = 1998-067XH
CENTER_NAME    = EARTH
REF_FRAME      = TEME
TIME_SYSTEM    = UTC
MEAN_ELEMENT_THEORY = SGP/SGP4

EPOCH          = 2025-12-03T19:52:13.613376
MEAN_MOTION    = 15.68394911
ECCENTRICITY   = .00065361
INCLINATION    = 51.6246
RA_OF_ASC_NODE = 181.2773
ARG_OF_PERICENTER = 221.3225
MEAN_ANOMALY   = 138.7278

EPHEMERIS_TYPE = 0
CLASSIFICATION_TYPE = U
NORAD_CAT_ID   = 65729
ELEMENT_SET_NO = 999
REV_AT_EPOCH   = 1176
BSTAR          = .14908733E-2
MEAN_MOTION_DOT = .174585E-2
MEAN_MOTION_DDOT = 0

CCSDS_OMM_VERS = 2.0
CREATION_DATE  = 
ORIGINATOR     = 

OBJECT_NAME    = 1998-067XJ
OBJECT_ID      = 1998-067XJ
CENTER_NAME    = EARTH
REF_FRAME      = TEME
TIME_SYSTEM    = UTC
MEAN_ELEMENT_THEORY = SGP/SGP4

EPOCH          = 2025-12-02T19:46:01.269984
MEAN_MOTION    = 16.23931094
ECCENTRICITY   = .00101147
INCLINATION    = 51.6061
RA_OF_ASC_NODE = 180.4655
ARG_OF_PERICENTER = 256.3912
MEAN_ANOMALY   = 103.5981

EPHEMERIS_TYPE = 0
CLASSIFICATION_TYPE = U
NORAD_CAT_ID   = 65730
ELEMENT_SET_NO = 999
REV_AT_EPOCH   = 1168
BSTAR          = .2285911E-2
MEAN_MOTION_DOT = .6330363E-1
MEAN_MOTION_DDOT = .11931217E-4

CCSDS_OMM_VERS = 2.0
CREATION_DATE  = 
ORIGINATOR     = 

OBJECT_NAME    = 1998-067XK
OBJECT_ID      = 1998-067XK
CENTER_NAME    = EARTH
REF_FRAME      = TEME
TIME_SYSTEM    = UTC
MEAN_ELEMENT_THEORY = SGP/SGP4

EPOCH          = 2025-12-03T20:33:14.862528
MEAN_MOTION    = 15.63596152
ECCENTRICITY   = .00059045
INCLINATION    = 51.6280
RA_OF_ASC_NODE = 182.2290
ARG_OF_PERICENTER = 193.4783
MEAN_ANOMALY   = 166.6055

EPHEMERIS_TYPE = 0
CLASSIFICATION_TYPE = U
NORAD_CAT_ID   = 65731
ELEMENT_SET_NO = 999
REV_AT_EPOCH   = 1175
BSTAR          = .13142835E-2
MEAN_MOTION_DOT = .126041E-2
MEAN_MOTION_DDOT = 0

CCSDS_OMM_VERS = 2.0
CREATION_DATE  = 
ORIGINATOR     = 

OBJECT_NAME    = RSP-03
OBJECT_ID      = 1998-067XL
CENTER_NAME    = EARTH
REF_FRAME      = TEME
TIME_SYSTEM    = UTC
MEAN_ELEMENT_THEORY = SGP/SGP4

EPOCH          = 2025-12-03T19:29:20.077152
MEAN_MOTION    = 15.65846049
ECCENTRICITY   = .00066871
INCLINATION    = 51.6261
RA_OF_ASC_NODE = 181.9259
ARG_OF_PERICENTER = 196.3432
MEAN_ANOMALY   = 163.7349

EPHEMERIS_TYPE = 0
CLASSIFICATION_TYPE = U
NORAD_CAT_ID   = 65732
ELEMENT_SET_NO = 999
REV_AT_EPOCH   = 1176
BSTAR          = .12908506E-2
MEAN_MOTION_DOT = .135578E-2
MEAN_MOTION_DDOT = 0

CCSDS_OMM_VERS = 2.0
CREATION_DATE  = 
ORIGINATOR     = 

OBJECT_NAME    = GHS-01
OBJECT_ID      = 1998-067XM
CENTER_NAME    = EARTH
REF_FRAME      = TEME
TIME_SYSTEM    = UTC
MEAN_ELEMENT_THEORY = SGP/SGP4

EPOCH          = 2025-12-03T22:05:54.332736
MEAN_MOTION    = 15.70494881
ECCENTRICITY   = .0007009
INCLINATION    = 51.6271
RA_OF_ASC_NODE = 180.4028
ARG_OF_PERICENTER = 220.9221
MEAN_ANOMALY   = 139.1251

EPHEMERIS_TYPE = 0
CLASSIFICATION_TYPE = U
NORAD_CAT_ID   = 65733
ELEMENT_SET_NO = 999
REV_AT_EPOCH   = 1179
BSTAR          = .1848703E-2
MEAN_MOTION_DOT = .238165E-2
MEAN_MOTION_DDOT = 0

CCSDS_OMM_VERS = 2.0
CREATION_DATE  = 
ORIGINATOR     = 

OBJECT_NAME    = YOTSUBA-KULOVER
OBJECT_ID      = 1998-067XN
CENTER_NAME    = EARTH
REF_FRAME      = TEME
TIME_SYSTEM    = UTC
MEAN_ELEMENT_THEORY = SGP/SGP4

EPOCH          = 2025-12-03T13:03:34.819200
MEAN_MOTION    = 15.57842234
ECCENTRICITY   = .00020894
INCLINATION    = 51.6280
RA_OF_ASC_NODE = 186.1413
ARG_OF_PERICENTER = 172.2888
MEAN_ANOMALY   = 187.8136

EPHEMERIS_TYPE = 0
CLASSIFICATION_TYPE = U
NORAD_CAT_ID   = 65941
ELEMENT_SET_NO = 999
REV_AT_EPOCH   = 842
BSTAR          = .1074186E-2
MEAN_MOTION_DOT = .8193E-3
MEAN_MOTION_DDOT = 0

CCSDS_OMM_VERS = 2.0
CREATION_DATE  = 
ORIGINATOR     = 

OBJECT_NAME    = BOTAN
OBJECT_ID      = 1998-067XP
CENTER_NAME    = EARTH
REF_FRAME      = TEME
TIME_SYSTEM    = UTC
MEAN_ELEMENT_THEORY = SGP/SGP4

EPOCH          = 2025-12-03T18:13:47.902944
MEAN_MOTION    = 15.60510623
ECCENTRICITY   = .00042436
INCLINATION    = 51.6281
RA_OF_ASC_NODE = 184.5795
ARG_OF_PERICENTER = 175.2259
MEAN_ANOMALY   = 184.8775

EPHEMERIS_TYPE = 0
CLASSIFICATION_TYPE = U
NORAD_CAT_ID   = 65942
ELEMENT_SET_NO = 999
REV_AT_EPOCH   = 846
BSTAR          = .13484674E-2
MEAN_MOTION_DOT = .114481E-2
MEAN_MOTION_DDOT = 0

CCSDS_OMM_VERS = 2.0
CREATION_DATE  = 
ORIGINATOR     = 

OBJECT_NAME    = E-KAGAKU-1
OBJECT_ID      = 1998-067XQ
CENTER_NAME    = EARTH
REF_FRAME      = TEME
TIME_SYSTEM    = UTC
MEAN_ELEMENT_THEORY = SGP/SGP4

EPOCH          = 2025-12-02T21:39:34.941600
MEAN_MOTION    = 15.57714998
ECCENTRICITY   = .00035202
INCLINATION    = 51.6296
RA_OF_ASC_NODE = 189.3580
ARG_OF_PERICENTER = 147.4331
MEAN_ANOMALY   = 212.6879

EPHEMERIS_TYPE = 0
CLASSIFICATION_TYPE = U
NORAD_CAT_ID   = 65943
ELEMENT_SET_NO = 999
REV_AT_EPOCH   = 832
BSTAR          = .96701912E-3
MEAN_MOTION_DOT = .73283E-3
MEAN_MOTION_DDOT = 0

CCSDS_OMM_VERS = 2.0
CREATION_DATE  = 
ORIGINATOR     = 

OBJECT_NAME    = HRC MONOBLOCK CAMERA
OBJECT_ID      = 1998-067XR
CENTER_NAME    = EARTH
REF_FRAME      = TEME
TIME_SYSTEM    = UTC
MEAN_ELEMENT_THEORY = SGP/SGP4

EPOCH          = 2025-12-03T20:08:36.473856
MEAN_MOTION    = 15.53262535
ECCENTRICITY   = .00043606
INCLINATION    = 51.6292
RA_OF_ASC_NODE = 185.8570
ARG_OF_PERICENTER = 148.6875
MEAN_ANOMALY   = 211.4376

EPHEMERIS_TYPE = 0
CLASSIFICATION_TYPE = U
NORAD_CAT_ID   = 66052
ELEMENT_SET_NO = 999
REV_AT_EPOCH   = 745
BSTAR          = .77352903E-3
MEAN_MOTION_DOT = .49466E-3
MEAN_MOTION_DDOT = 0

CCSDS_OMM_VERS = 2.0
CREATION_DATE  = 
ORIGINATOR     = 

OBJECT_NAME    = HTV-X1
OBJECT_ID      = 2025-241A
CENTER_NAME    = EARTH
REF_FRAME      = TEME
TIME_SYSTEM    = UTC
MEAN_ELEMENT_THEORY = SGP/SGP4

EPOCH          = 2025-12-03T21:33:39.277728
MEAN_MOTION    = 15.49284650
ECCENTRICITY   = .00035922
INCLINATION    = 51.6303
RA_OF_ASC_NODE = 186.2514
ARG_OF_PERICENTER = 201.3576
MEAN_ANOMALY   = 158.7263

EPHEMERIS_TYPE = 0
CLASSIFICATION_TYPE = U
NORAD_CAT_ID   = 66174
ELEMENT_SET_NO = 999
REV_AT_EPOCH   = 51
BSTAR          = .25253496E-3
MEAN_MOTION_DOT = .13627E-3
MEAN_MOTION_DDOT = 0

